{
  "type": "FeatureCollection",
  "features": [
    {
      "type": "Feature",
      "properties": {
        "norad_id": 64902,
        "name": "CO3D 2",
        "group": "resource",
        "lat": 16.56835770654279,
        "lon": 53.84532838390045,
        "alt_km": 505.8289154567201,
        "timestamp": "2025-12-05T16:54:14.327760+00:00",
        "meta_object_name": "CO3D 2",
        "meta_object_id": "2025-156D",
        "meta_epoch": "2025-12-05T07:21:07.929792",
        "meta_mean_motion": 15.20197425,
        "meta_eccentricity": 8.814e-05,
        "meta_inclination": 97.4349,
        "meta_ra_of_asc_node": 55.6796,
        "meta_arg_of_pericenter": 100.4245,
        "meta_mean_anomaly": 259.709,
        "meta_ephemeris_type": 0,
        "meta_classification_type": "U",
        "meta_norad_cat_id": 64902,
        "meta_element_set_no": 999,
        "meta_rev_at_epoch": 2007,
        "meta_bstar": 0.00057640647,
        "meta_mean_motion_dot": 0.00012429,
        "meta_mean_motion_ddot": 0,
        "tle_line1": "1 64902U 25156D   25339.30634178  .00012429  00000+0  57641-3 0  9997",
        "tle_line2": "2 64902  97.4349  55.6796 0000881 100.4245 259.7090 15.20197425 20077"
      },
      "geometry": {
        "type": "Point",
        "coordinates": [
          53.84532838390045,
          16.56835770654279
        ]
      }
    },
    {
      "type": "Feature",
      "properties": {
        "norad_id": 64903,
        "name": "CO3D 1",
        "group": "resource",
        "lat": 15.73699403696022,
        "lon": 53.96301310457649,
        "alt_km": 506.02135168280984,
        "timestamp": "2025-12-05T16:54:14.327769+00:00",
        "meta_object_name": "CO3D 1",
        "meta_object_id": "2025-156E",
        "meta_epoch": "2025-12-05T07:21:21.115296",
        "meta_mean_motion": 15.20195462,
        "meta_eccentricity": 9.105e-05,
        "meta_inclination": 97.435,
        "meta_ra_of_asc_node": 55.6797,
        "meta_arg_of_pericenter": 104.883,
        "meta_mean_anomaly": 255.2506,
        "meta_ephemeris_type": 0,
        "meta_classification_type": "U",
        "meta_norad_cat_id": 64903,
        "meta_element_set_no": 999,
        "meta_rev_at_epoch": 2007,
        "meta_bstar": 0.00053025373,
        "meta_mean_motion_dot": 0.00011427,
        "meta_mean_motion_ddot": 0,
        "tle_line1": "1 64903U 25156E   25339.30649439  .00011427  00000+0  53025-3 0  9993",
        "tle_line2": "2 64903  97.4350  55.6797 0000910 104.8830 255.2506 15.20195462 20074"
      },
      "geometry": {
        "type": "Point",
        "coordinates": [
          53.96301310457649,
          15.73699403696022
        ]
      }
    },
    {
      "type": "Feature",
      "properties": {
        "norad_id": 66514,
        "name": "SENTINEL-6B",
        "group": "resource",
        "lat": 8.456651100996023,
        "lon": -179.1113657458614,
        "alt_km": 1320.3906714064506,
        "timestamp": "2025-12-05T16:54:14.327778+00:00",
        "meta_object_name": "SENTINEL-6B",
        "meta_object_id": "2025-264A",
        "meta_epoch": "2025-12-05T05:39:22.607712",
        "meta_mean_motion": 12.8587775,
        "meta_eccentricity": 0.0011549,
        "meta_inclination": 66.0392,
        "meta_ra_of_asc_node": 178.08,
        "meta_arg_of_pericenter": 268.4163,
        "meta_mean_anomaly": 91.5532,
        "meta_ephemeris_type": 0,
        "meta_classification_type": "U",
        "meta_norad_cat_id": 66514,
        "meta_element_set_no": 999,
        "meta_rev_at_epoch": 232,
        "meta_bstar": 0.00029277117,
        "meta_mean_motion_dot": 1e-07,
        "meta_mean_motion_ddot": 0,
        "tle_line1": "1 66514U 25264A   25339.23567833  .00000010  00000+0  29277-3 0  9990",
        "tle_line2": "2 66514  66.0392 178.0800 0011549 268.4163  91.5532 12.85877750  2326"
      },
      "geometry": {
        "type": "Point",
        "coordinates": [
          -179.1113657458614,
          8.456651100996023
        ]
      }
    }
  ]
}